{
  "type": "FeatureCollection",
  "features": [
    {
      "type": "Feature",
      "properties": {
        "norad_id": 29760,
        "name": "FENGYUN 1C DEB",
        "group": "fengyun-1c-debris",
        "lat": 26.21951094807999,
        "lon": -8.929502475106371,
        "alt_km": 921.9180973852699,
        "timestamp": "2025-12-19T10:50:01.472102+00:00",
        "meta_object_name": "FENGYUN 1C DEB",
        "meta_object_id": "1999-025BA",
        "meta_epoch": "2025-12-18T22:46:09.662880",
        "meta_mean_motion": 14.08292249,
        "meta_eccentricity": 0.01310995,
        "meta_inclination": 98.7625,
        "meta_ra_of_asc_node": 354.9385,
        "meta_arg_of_pericenter": 156.0731,
        "meta_mean_anomaly": 204.6607,
        "meta_ephemeris_type": 0,
        "meta_classification_type": "U",
        "meta_norad_cat_id": 29760,
        "meta_element_set_no": 999,
        "meta_rev_at_epoch": 97180,
        "meta_bstar": 0.00021813927,
        "meta_mean_motion_dot": 3.61e-06,
        "meta_mean_motion_ddot": 0,
        "tle_line1": "1 29760U 99025BA  25352.94872295  .00000361  00000+0  21814-3 0  9990",
        "tle_line2": "2 29760  98.7625 354.9385 0131099 156.0731 204.6607 14.08292249971807"
      },
      "geometry": {
        "type": "Point",
        "coordinates": [
          -8.929502475106371,
          26.21951094807999
        ]
      }
    },
    {
      "type": "Feature",
      "properties": {
        "norad_id": 29762,
        "name": "FENGYUN 1C DEB",
        "group": "fengyun-1c-debris",
        "lat": -20.13170589969871,
        "lon": -20.75596287952494,
        "alt_km": 687.0130529760227,
        "timestamp": "2025-12-19T10:50:01.472112+00:00",
        "meta_object_name": "FENGYUN 1C DEB",
        "meta_object_id": "1999-025BC",
        "meta_epoch": "2025-12-18T21:31:04.708128",
        "meta_mean_motion": 14.22595736,
        "meta_eccentricity": 0.02036393,
        "meta_inclination": 98.5798,
        "meta_ra_of_asc_node": 335.5309,
        "meta_arg_of_pericenter": 317.7125,
        "meta_mean_anomaly": 61.2786,
        "meta_ephemeris_type": 0,
        "meta_classification_type": "U",
        "meta_norad_cat_id": 29762,
        "meta_element_set_no": 999,
        "meta_rev_at_epoch": 98036,
        "meta_bstar": 0.00029707308,
        "meta_mean_motion_dot": 7.73e-06,
        "meta_mean_motion_ddot": 0,
        "tle_line1": "1 29762U 99025BC  25352.89658227  .00000773  00000+0  29707-3 0  9999",
        "tle_line2": "2 29762  98.5798 335.5309 0203639 317.7125  61.2786 14.22595736980361"
      },
      "geometry": {
        "type": "Point",
        "coordinates": [
          -20.75596287952494,
          -20.13170589969871
        ]
      }
    },
    {
      "type": "Feature",
      "properties": {
        "norad_id": 29763,
        "name": "FENGYUN 1C DEB",
        "group": "fengyun-1c-debris",
        "lat": -29.823334017725948,
        "lon": 147.58949740884586,
        "alt_km": 810.5675245558414,
        "timestamp": "2025-12-19T10:50:01.472123+00:00",
        "meta_object_name": "FENGYUN 1C DEB",
        "meta_object_id": "1999-025BD",
        "meta_epoch": "2025-12-18T22:10:12.561600",
        "meta_mean_motion": 14.07880536,
        "meta_eccentricity": 0.01276823,
        "meta_inclination": 98.7615,
        "meta_ra_of_asc_node": 332.1492,
        "meta_arg_of_pericenter": 163.0677,
        "meta_mean_anomaly": 253.114,
        "meta_ephemeris_type": 0,
        "meta_classification_type": "U",
        "meta_norad_cat_id": 29763,
        "meta_element_set_no": 999,
        "meta_rev_at_epoch": 97137,
        "meta_bstar": 2.5784303e-05,
        "meta_mean_motion_dot": 5e-08,
        "meta_mean_motion_ddot": 0,
        "tle_line1": "1 29763U 99025BD  25352.92375650  .00000005  00000+0  25784-4 0  9990",
        "tle_line2": "2 29763  98.7615 332.1492 0127682 163.0677 253.1140 14.07880536971370"
      },
      "geometry": {
        "type": "Point",
        "coordinates": [
          147.58949740884586,
          -29.823334017725948
        ]
      }
    },
    {
      "type": "Feature",
      "properties": {
        "norad_id": 29765,
        "name": "FENGYUN 1C DEB",
        "group": "fengyun-1c-debris",
        "lat": -46.130010078700224,
        "lon": 20.73134817465174,
        "alt_km": 915.2640379147379,
        "timestamp": "2025-12-19T10:50:01.472133+00:00",
        "meta_object_name": "FENGYUN 1C DEB",
        "meta_object_id": "1999-025BF",
        "meta_epoch": "2025-12-18T13:30:43.358976",
        "meta_mean_motion": 14.02153178,
        "meta_eccentricity": 0.00600992,
        "meta_inclination": 98.8295,
        "meta_ra_of_asc_node": 10.566,
        "meta_arg_of_pericenter": 76.5718,
        "meta_mean_anomaly": 75.289,
        "meta_ephemeris_type": 0,
        "meta_classification_type": "U",
        "meta_norad_cat_id": 29765,
        "meta_element_set_no": 999,
        "meta_rev_at_epoch": 96832,
        "meta_bstar": -4.4169171e-05,
        "meta_mean_motion_dot": -1.11e-06,
        "meta_mean_motion_ddot": 0,
        "tle_line1": "1 29765U 99025BF  25352.56300184 -.00000111  00000+0 -44169-4 0  9990",
        "tle_line2": "2 29765  98.8295  10.5660 0060099  76.5718  75.2890 14.02153178968329"
      },
      "geometry": {
        "type": "Point",
        "coordinates": [
          20.73134817465174,
          -46.130010078700224
        ]
      }
    },
    {
      "type": "Feature",
      "properties": {
        "norad_id": 29766,
        "name": "FENGYUN 1C DEB",
        "group": "fengyun-1c-debris",
        "lat": -17.926094530348664,
        "lon": -54.45060660790583,
        "alt_km": 875.2636048553022,
        "timestamp": "2025-12-19T10:50:01.472144+00:00",
        "meta_object_name": "FENGYUN 1C DEB",
        "meta_object_id": "1999-025BG",
        "meta_epoch": "2025-12-18T19:35:32.788608",
        "meta_mean_motion": 13.97074116,
        "meta_eccentricity": 0.01457899,
        "meta_inclination": 98.686,
        "meta_ra_of_asc_node": 302.1146,
        "meta_arg_of_pericenter": 271.3748,
        "meta_mean_anomaly": 116.7884,
        "meta_ephemeris_type": 0,
        "meta_classification_type": "U",
        "meta_norad_cat_id": 29766,
        "meta_element_set_no": 999,
        "meta_rev_at_epoch": 95889,
        "meta_bstar": 0.00084277313,
        "meta_mean_motion_dot": 1.245e-05,
        "meta_mean_motion_ddot": 0,
        "tle_line1": "1 29766U 99025BG  25352.81635172  .00001245  00000+0  84277-3 0  9997",
        "tle_line2": "2 29766  98.6860 302.1146 0145789 271.3748 116.7884 13.97074116958895"
      },
      "geometry": {
        "type": "Point",
        "coordinates": [
          -54.45060660790583,
          -17.926094530348664
        ]
      }
    },
    {
      "type": "Feature",
      "properties": {
        "norad_id": 29767,
        "name": "FENGYUN 1C DEB",
        "group": "fengyun-1c-debris",
        "lat": 21.446643907294252,
        "lon": -41.747355086630954,
        "alt_km": 654.1315691721356,
        "timestamp": "2025-12-19T10:50:01.472154+00:00",
        "meta_object_name": "FENGYUN 1C DEB",
        "meta_object_id": "1999-025BH",
        "meta_epoch": "2025-12-18T21:17:17.325312",
        "meta_mean_motion": 14.03401109,
        "meta_eccentricity": 0.0333155,
        "meta_inclination": 98.1978,
        "meta_ra_of_asc_node": 320.989,
        "meta_arg_of_pericenter": 43.8174,
        "meta_mean_anomaly": 9.3879,
        "meta_ephemeris_type": 0,
        "meta_classification_type": "U",
        "meta_norad_cat_id": 29767,
        "meta_element_set_no": 999,
        "meta_rev_at_epoch": 95686,
        "meta_bstar": 0.0017396627,
        "meta_mean_motion_dot": 4.417e-05,
        "meta_mean_motion_ddot": 0,
        "tle_line1": "1 29767U 99025BH  25352.88700608  .00004417  00000+0  17397-2 0  9994",
        "tle_line2": "2 29767  98.1978 320.9890 0333155  43.8174   9.3879 14.03401109956866"
      },
      "geometry": {
        "type": "Point",
        "coordinates": [
          -41.747355086630954,
          21.446643907294252
        ]
      }
    },
    {
      "type": "Feature",
      "properties": {
        "norad_id": 29769,
        "name": "FENGYUN 1C DEB",
        "group": "fengyun-1c-debris",
        "lat": -38.63287704515893,
        "lon": 58.21760579171684,
        "alt_km": 912.4065442881056,
        "timestamp": "2025-12-19T10:50:01.472165+00:00",
        "meta_object_name": "FENGYUN 1C DEB",
        "meta_object_id": "1999-025BK",
        "meta_epoch": "2025-12-18T16:20:04.182144",
        "meta_mean_motion": 14.13559199,
        "meta_eccentricity": 0.00933933,
        "meta_inclination": 99.106,
        "meta_ra_of_asc_node": 50.0685,
        "meta_arg_of_pericenter": 113.9434,
        "meta_mean_anomaly": 247.1553,
        "meta_ephemeris_type": 0,
        "meta_classification_type": "U",
        "meta_norad_cat_id": 29769,
        "meta_element_set_no": 999,
        "meta_rev_at_epoch": 96765,
        "meta_bstar": 0.001084754,
        "meta_mean_motion_dot": 2.086e-05,
        "meta_mean_motion_ddot": 0,
        "tle_line1": "1 29769U 99025BK  25352.68060396  .00002086  00000+0  10848-2 0  9991",
        "tle_line2": "2 29769  99.1060  50.0685 0093393 113.9434 247.1553 14.13559199967653"
      },
      "geometry": {
        "type": "Point",
        "coordinates": [
          58.21760579171684,
          -38.63287704515893
        ]
      }
    }
  ]
}